[{"OBJECT_NAME":"STARLINK-2675","OBJECT_ID":"2021-040AU","EPOCH":"2026-03-10T00:00:02.999808","MEAN_MOTION":15.29305343,"ECCENTRICITY":7.301e-5,"INCLINATION":53.1533,"RA_OF_ASC_NODE":189.5914,"ARG_OF_PERICENTER":82.2618,"MEAN_ANOMALY":12.7891,"EPHEMERIS_TYPE":0,"CLASSIFICATION_TYPE":"U","NORAD_CAT_ID":48470,"ELEMENT_SET_NO":999,"REV_AT_EPOCH":574,"BSTAR":0.0015687282,"MEAN_MOTION_DOT":0.00045116,"MEAN_MOTION_DDOT":0},{"OBJECT_NAME":"USA 60","OBJECT_ID":"1990-050B","EPOCH":"2026-03-09T13:24:55.962720","MEAN_MOTION":13.64521674,"ECCENTRICITY":0.0879763,"INCLINATION":63.2945,"RA_OF_ASC_NODE":117.426,"ARG_OF_PERICENTER":81.005,"MEAN_ANOMALY":288.9398,"EPHEMERIS_TYPE":0,"CLASSIFICATION_TYPE":"U","NORAD_CAT_ID":20682,"ELEMENT_SET_NO":999,"REV_AT_EPOCH":9025,"BSTAR":0.00037184,"MEAN_MOTION_DOT":5.55e-5,"MEAN_MOTION_DDOT":0}]
